{
    "links": {
        "self": "http://www.neowsapp.com/rest/v1/neo/3283217?api_key=iIulBulltgU6a56xZRHN4H3l9WmuAYTsLGpBGhQ2"
    },
    "id": "3283217",
    "neo_reference_id": "3283217",
    "name": "(2005 ME5)",
    "designation": "2005 ME5",
    "nasa_jpl_url": "http://ssd.jpl.nasa.gov/sbdb.cgi?sstr=3283217",
    "absolute_magnitude_h": 25.5,
    "estimated_diameter": {
        "kilometers": {
            "estimated_diameter_min": 0.0211132445,
            "estimated_diameter_max": 0.0472106499
        },
        "meters": {
            "estimated_diameter_min": 21.113244479,
            "estimated_diameter_max": 47.2106498806
        },
        "miles": {
            "estimated_diameter_min": 0.0131191578,
            "estimated_diameter_max": 0.0293353287
        },
        "feet": {
            "estimated_diameter_min": 69.2691770164,
            "estimated_diameter_max": 154.8905885541
        }
    },
    "is_potentially_hazardous_asteroid": false,
    "close_approach_data": [
        {
            "close_approach_date": "2005-07-05",
            "close_approach_date_full": "2005-Jul-05 22:20",
            "epoch_date_close_approach": 1120602000000,
            "relative_velocity": {
                "kilometers_per_second": "6.7477649643",
                "kilometers_per_hour": "24291.9538714488",
                "miles_per_hour": "15094.0754486233"
            },
            "miss_distance": {
                "astronomical": "0.0393282776",
                "lunar": "15.2986999864",
                "kilometers": "5883426.559728712",
                "miles": "3655791.7428997456"
            },
            "orbiting_body": "Earth"
        }
    ],
    "orbital_data": {
        "orbit_id": "9",
        "orbit_determination_date": "2017-04-06 09:10:50",
        "first_observation_date": "2005-06-27",
        "last_observation_date": "2005-07-01",
        "data_arc_in_days": 4,
        "observations_used": 25,
        "orbit_uncertainty": "8",
        "minimum_orbit_intersection": ".0385859",
        "jupiter_tisserand_invariant": "3.653",
        "epoch_osculation": "2453549.5",
        "eccentricity": ".4806716723753428",
        "semi_major_axis": "2.030967572674516",
        "inclination": "5.557237964100273",
        "ascending_node_longitude": "98.78206512750771",
        "orbital_period": "1057.189669870596",
        "perihelion_distance": "1.054738992976966",
        "perihelion_argument": "185.0823485039405",
        "aphelion_distance": "3.007196152372066",
        "perihelion_time": "2453557.663271539700",
        "mean_anomaly": "357.2201981933367",
        "mean_motion": ".3405254612864931",
        "equinox": "J2000",
        "orbit_class": {
            "orbit_class_type": "AMO",
            "orbit_class_description": "Near-Earth asteroid orbits similar to that of 1221 Amor",
            "orbit_class_range": "1.017 AU < q (perihelion) < 1.3 AU"
        }
    },
    "is_sentry_object": false
}